TIANMU-1 08             
1 57400U 23101B   26066.00237819  .00000346  00000+0  14775-4 0  9993
2 57400  97.2717 118.7901 0006380 134.2174 225.9592 15.29204229146020
STARLINK-31948          
1 59941U 24106V   26068.06481903  .00000949  00000+0  44005-4 0  9992
2 59941  42.9926 332.8110 0001731  11.3368 348.7522 15.27573686100466
